IRIDIUM 57              
1 25273U 98019B   24291.14539773  .00001525  00000+0  52370-3 0  9995
2 25273  86.3943 247.0016 0002404  87.4164 272.7308 14.35492350390124
IRIDIUM 63              
1 25286U 98021B   24290.77207583  .00001639  00000+0  55653-3 0  9994
2 25286  86.4053 184.1396 0002222  76.5108 283.6337 14.36104032388902
IRIDIUM 69              
1 25319U 98026A   24290.75941208  .00002373  00000+0  74159-3 0  9991
2 25319  86.4047 198.1446 0004591  93.2171 266.9554 14.40408851388018
IRIDIUM 71              
1 25320U 98026B   24290.24761140  .00001726  00000+0  53463-3 0  9998
2 25320  86.4048 193.1037 0003167 124.1908 235.9592 14.40677194388467
IRIDIUM 73              
1 25344U 98032C   24290.90190487  .00001904  00000+0  47665-3 0  9999
2 25344  86.4439 150.1007 0002803  86.2878 273.8647 14.51010503395273
IRIDIUM 82              
1 25467U 98051A   24290.30898735  .00027073  00000+0  11673-2 0  9995
2 25467  86.3759 228.0398 0117700 131.6184 229.5214 15.16253593386806
